[{"OBJECT_NAME":"MONITOR-3 (RS58S)","OBJECT_ID":"2023-091Q","EPOCH":"2026-03-09T23:24:02.583360","MEAN_MOTION":15.25747617,"ECCENTRICITY":0.0013676,"INCLINATION":97.5199,"RA_OF_ASC_NODE":131.7909,"ARG_OF_PERICENTER":91.0881,"MEAN_ANOMALY":269.1924,"EPHEMERIS_TYPE":0,"CLASSIFICATION_TYPE":"U","NORAD_CAT_ID":57180,"ELEMENT_SET_NO":999,"REV_AT_EPOCH":14915,"BSTAR":0.00054974842,"MEAN_MOTION_DOT":0.00014004,"MEAN_MOTION_DDOT":0},{"OBJECT_NAME":"STARLINK-31951","OBJECT_ID":"2024-100F","EPOCH":"2026-03-09T12:31:57.336960","MEAN_MOTION":15.27567684,"ECCENTRICITY":9.009e-5,"INCLINATION":42.9998,"RA_OF_ASC_NODE":126.1377,"ARG_OF_PERICENTER":306.1057,"MEAN_ANOMALY":53.9711,"EPHEMERIS_TYPE":0,"CLASSIFICATION_TYPE":"U","NORAD_CAT_ID":59890,"ELEMENT_SET_NO":999,"REV_AT_EPOCH":10103,"BSTAR":-0.0001021069,"MEAN_MOTION_DOT":-3.069e-5,"MEAN_MOTION_DDOT":0}]
